CCSDS_OMM_VERS = 2.0
CREATION_DATE  = 
ORIGINATOR     = 

OBJECT_NAME    = STARLINK-37090
OBJECT_ID      = 2026-050AC
CENTER_NAME    = EARTH
REF_FRAME      = TEME
TIME_SYSTEM    = UTC
MEAN_ELEMENT_THEORY = SGP/SGP4

EPOCH          = 2026-03-19T13:31:47.877312
MEAN_MOTION    = 16.01369308
ECCENTRICITY   = .0000711
INCLINATION    = 53.1621
RA_OF_ASC_NODE = 232.5012
ARG_OF_PERICENTER = 333.6069
MEAN_ANOMALY   = 26.4927

EPHEMERIS_TYPE = 0
CLASSIFICATION_TYPE = U
NORAD_CAT_ID   = 68193
ELEMENT_SET_NO = 999
REV_AT_EPOCH   = 203
BSTAR          = -.11396E-2
MEAN_MOTION_DOT = -.651387E-2
MEAN_MOTION_DDOT = .15641E-3

CCSDS_OMM_VERS = 2.0
CREATION_DATE  = 
ORIGINATOR     = 

OBJECT_NAME    = STARLINK-37093
OBJECT_ID      = 2026-050AD
CENTER_NAME    = EARTH
REF_FRAME      = TEME
TIME_SYSTEM    = UTC
MEAN_ELEMENT_THEORY = SGP/SGP4

EPOCH          = 2026-03-19T13:33:27.860256
MEAN_MOTION    = 16.00670231
ECCENTRICITY   = .0001079
INCLINATION    = 53.1623
RA_OF_ASC_NODE = 232.5098
ARG_OF_PERICENTER = 125.0257
MEAN_ANOMALY   = 235.0876

EPHEMERIS_TYPE = 0
CLASSIFICATION_TYPE = U
NORAD_CAT_ID   = 68194
ELEMENT_SET_NO = 999
REV_AT_EPOCH   = 203
BSTAR          = -.12185E-2
MEAN_MOTION_DOT = -.668674E-2
MEAN_MOTION_DDOT = .16258E-3

CCSDS_OMM_VERS = 2.0
CREATION_DATE  = 
ORIGINATOR     = 

OBJECT_NAME    = STARLINK-37058
OBJECT_ID      = 2026-050AE
CENTER_NAME    = EARTH
REF_FRAME      = TEME
TIME_SYSTEM    = UTC
MEAN_ELEMENT_THEORY = SGP/SGP4

EPOCH          = 2026-03-19T07:32:38.613984
MEAN_MOTION    = 16.02049525
ECCENTRICITY   = .0002524
INCLINATION    = 53.1616
RA_OF_ASC_NODE = 233.7917
ARG_OF_PERICENTER = 340.0442
MEAN_ANOMALY   = 20.0490

EPHEMERIS_TYPE = 0
CLASSIFICATION_TYPE = U
NORAD_CAT_ID   = 68195
ELEMENT_SET_NO = 999
REV_AT_EPOCH   = 43
BSTAR          = -.12605E-2
MEAN_MOTION_DOT = -.749084E-2
MEAN_MOTION_DDOT = .20203E-3

CCSDS_OMM_VERS = 2.0
CREATION_DATE  = 
ORIGINATOR     = 

OBJECT_NAME    = YAOGAN-50 02
OBJECT_ID      = 2026-051A
CENTER_NAME    = EARTH
REF_FRAME      = TEME
TIME_SYSTEM    = UTC
MEAN_ELEMENT_THEORY = SGP/SGP4

EPOCH          = 2026-03-20T00:00:02.495232
MEAN_MOTION    = 14.02354822
ECCENTRICITY   = .00855894
INCLINATION    = 141.9942
RA_OF_ASC_NODE = 256.6193
ARG_OF_PERICENTER = 153.1893
MEAN_ANOMALY   = 207.3280

EPHEMERIS_TYPE = 0
CLASSIFICATION_TYPE = U
NORAD_CAT_ID   = 68196
ELEMENT_SET_NO = 999
REV_AT_EPOCH   = 63
BSTAR          = .2823449E-4
MEAN_MOTION_DOT = .241E-5
MEAN_MOTION_DDOT = 0

CCSDS_OMM_VERS = 2.0
CREATION_DATE  = 
ORIGINATOR     = 

OBJECT_NAME    = CZ-6A R/B
OBJECT_ID      = 2026-051B
CENTER_NAME    = EARTH
REF_FRAME      = TEME
TIME_SYSTEM    = UTC
MEAN_ELEMENT_THEORY = SGP/SGP4

EPOCH          = 2026-03-22T06:19:04.717920
MEAN_MOTION    = 14.56363282
ECCENTRICITY   = .01858677
INCLINATION    = 142.0318
RA_OF_ASC_NODE = 270.6738
ARG_OF_PERICENTER = 140.7574
MEAN_ANOMALY   = 220.6787

EPHEMERIS_TYPE = 0
CLASSIFICATION_TYPE = U
NORAD_CAT_ID   = 68197
ELEMENT_SET_NO = 999
REV_AT_EPOCH   = 99
BSTAR          = .19733931E-3
MEAN_MOTION_DOT = .1427E-4
MEAN_MOTION_DDOT = 0

CCSDS_OMM_VERS = 2.0
CREATION_DATE  = 
ORIGINATOR     = 

OBJECT_NAME    = 2026-052A
OBJECT_ID      = 2026-052A
CENTER_NAME    = EARTH
REF_FRAME      = TEME
TIME_SYSTEM    = UTC
MEAN_ELEMENT_THEORY = SGP/SGP4

EPOCH          = 2026-03-22T05:58:09.948864
MEAN_MOTION    = 15.09874697
ECCENTRICITY   = .00125164
INCLINATION    = 97.5370
RA_OF_ASC_NODE = 157.4026
ARG_OF_PERICENTER = 242.4416
MEAN_ANOMALY   = 117.5543

EPHEMERIS_TYPE = 0
CLASSIFICATION_TYPE = U
NORAD_CAT_ID   = 68198
ELEMENT_SET_NO = 999
REV_AT_EPOCH   = 92
BSTAR          = .55006506E-3
MEAN_MOTION_DOT = .8863E-4
MEAN_MOTION_DDOT = 0

CCSDS_OMM_VERS = 2.0
CREATION_DATE  = 
ORIGINATOR     = 

OBJECT_NAME    = YUXING-3 06
OBJECT_ID      = 2026-052B
CENTER_NAME    = EARTH
REF_FRAME      = TEME
TIME_SYSTEM    = UTC
MEAN_ELEMENT_THEORY = SGP/SGP4

EPOCH          = 2026-03-22T18:40:38.361792
MEAN_MOTION    = 15.10019513
ECCENTRICITY   = .0011661
INCLINATION    = 97.5372
RA_OF_ASC_NODE = 157.9244
ARG_OF_PERICENTER = 241.9593
MEAN_ANOMALY   = 118.0457

EPHEMERIS_TYPE = 0
CLASSIFICATION_TYPE = U
NORAD_CAT_ID   = 68199
ELEMENT_SET_NO = 999
REV_AT_EPOCH   = 100
BSTAR          = .32387E-3
MEAN_MOTION_DOT = .5209E-4
MEAN_MOTION_DDOT = 0

CCSDS_OMM_VERS = 2.0
CREATION_DATE  = 
ORIGINATOR     = 

OBJECT_NAME    = 2026-052C
OBJECT_ID      = 2026-052C
CENTER_NAME    = EARTH
REF_FRAME      = TEME
TIME_SYSTEM    = UTC
MEAN_ELEMENT_THEORY = SGP/SGP4

EPOCH          = 2026-03-22T05:56:28.383072
MEAN_MOTION    = 15.10146722
ECCENTRICITY   = .0011362
INCLINATION    = 97.5366
RA_OF_ASC_NODE = 157.4041
ARG_OF_PERICENTER = 246.4217
MEAN_ANOMALY   = 113.5820

EPHEMERIS_TYPE = 0
CLASSIFICATION_TYPE = U
NORAD_CAT_ID   = 68200
ELEMENT_SET_NO = 999
REV_AT_EPOCH   = 91
BSTAR          = .32993858E-3
MEAN_MOTION_DOT = .5327E-4
MEAN_MOTION_DDOT = 0

CCSDS_OMM_VERS = 2.0
CREATION_DATE  = 
ORIGINATOR     = 

OBJECT_NAME    = 2026-052D
OBJECT_ID      = 2026-052D
CENTER_NAME    = EARTH
REF_FRAME      = TEME
TIME_SYSTEM    = UTC
MEAN_ELEMENT_THEORY = SGP/SGP4

EPOCH          = 2026-03-22T05:55:36.638112
MEAN_MOTION    = 15.10316032
ECCENTRICITY   = .00105173
INCLINATION    = 97.5373
RA_OF_ASC_NODE = 157.4019
ARG_OF_PERICENTER = 242.3661
MEAN_ANOMALY   = 117.6501

EPHEMERIS_TYPE = 0
CLASSIFICATION_TYPE = U
NORAD_CAT_ID   = 68201
ELEMENT_SET_NO = 999
REV_AT_EPOCH   = 92
BSTAR          = .51182536E-3
MEAN_MOTION_DOT = .8339E-4
MEAN_MOTION_DDOT = 0

CCSDS_OMM_VERS = 2.0
CREATION_DATE  = 
ORIGINATOR     = 

OBJECT_NAME    = 2026-052E
OBJECT_ID      = 2026-052E
CENTER_NAME    = EARTH
REF_FRAME      = TEME
TIME_SYSTEM    = UTC
MEAN_ELEMENT_THEORY = SGP/SGP4

EPOCH          = 2026-03-22T05:55:35.297184
MEAN_MOTION    = 15.10317863
ECCENTRICITY   = .0010439
INCLINATION    = 97.5375
RA_OF_ASC_NODE = 157.4029
ARG_OF_PERICENTER = 247.3538
MEAN_ANOMALY   = 112.6588

EPHEMERIS_TYPE = 0
CLASSIFICATION_TYPE = U
NORAD_CAT_ID   = 68202
ELEMENT_SET_NO = 999
REV_AT_EPOCH   = 92
BSTAR          = .50401731E-3
MEAN_MOTION_DOT = .8211E-4
MEAN_MOTION_DDOT = 0

CCSDS_OMM_VERS = 2.0
CREATION_DATE  = 
ORIGINATOR     = 

OBJECT_NAME    = 2026-052F
OBJECT_ID      = 2026-052F
CENTER_NAME    = EARTH
REF_FRAME      = TEME
TIME_SYSTEM    = UTC
MEAN_ELEMENT_THEORY = SGP/SGP4

EPOCH          = 2026-03-22T05:54:08.658720
MEAN_MOTION    = 15.10571536
ECCENTRICITY   = .00096733
INCLINATION    = 97.5366
RA_OF_ASC_NODE = 157.4109
ARG_OF_PERICENTER = 238.5685
MEAN_ANOMALY   = 121.4599

EPHEMERIS_TYPE = 0
CLASSIFICATION_TYPE = U
NORAD_CAT_ID   = 68203
ELEMENT_SET_NO = 999
REV_AT_EPOCH   = 92
BSTAR          = .50364689E-3
MEAN_MOTION_DOT = .8261E-4
MEAN_MOTION_DDOT = 0

CCSDS_OMM_VERS = 2.0
CREATION_DATE  = 
ORIGINATOR     = 

OBJECT_NAME    = 2026-052G
OBJECT_ID      = 2026-052G
CENTER_NAME    = EARTH
REF_FRAME      = TEME
TIME_SYSTEM    = UTC
MEAN_ELEMENT_THEORY = SGP/SGP4

EPOCH          = 2026-03-22T05:53:51.383040
MEAN_MOTION    = 15.10618627
ECCENTRICITY   = .00092432
INCLINATION    = 97.5373
RA_OF_ASC_NODE = 157.4041
ARG_OF_PERICENTER = 242.0245
MEAN_ANOMALY   = 118.0049

EPHEMERIS_TYPE = 0
CLASSIFICATION_TYPE = U
NORAD_CAT_ID   = 68204
ELEMENT_SET_NO = 999
REV_AT_EPOCH   = 92
BSTAR          = .48182197E-3
MEAN_MOTION_DOT = .7909E-4
MEAN_MOTION_DDOT = 0

